GLOBAL-31               
1 63027U 25033B   26196.71143241  .00005447  00000+0  15148-3 0  9999
2 63027  58.9961 200.8919 0012037  56.9599 303.2631 15.38317592 78718
GLOBAL-32               
1 64231U 25118B   26196.84484272  .00007952  00000+0  20973-3 0  9992
2 64231  58.9937  16.5539 0016568  61.5397 298.7346 15.39298124 62657
GLOBAL-33               
1 66554U 25267A   26196.43715393  .00006130  00000+0  17132-3 0  9993
2 66554  42.0180 251.8639 0007979  95.0002 265.1749 15.37230447 36396
GLOBAL-34               
1 68098U 26043A   26196.04369495  .00005816  00000+0  18566-3 0  9998
2 68098  42.0216  59.6488 0001710 141.7716 218.3243 15.33104306 20106
