{"fetched_at":"2026-07-16T06:42:56.789Z","source":"https://celestrak.org/NORAD/elements/gp.php?NAME=GLOBAL&FORMAT=JSON","constellation":"blacksky-gen3","records":[{"OBJECT_NAME":"GLOBAL-31","OBJECT_ID":"2025-033B","EPOCH":"2026-07-15T17:04:27.760224","CLASSIFICATION_TYPE":"U","MEAN_MOTION":15.38317592,"ECCENTRICITY":0.00120367,"INCLINATION":58.9961,"RA_OF_ASC_NODE":200.8919,"ARG_OF_PERICENTER":56.9599,"MEAN_ANOMALY":303.2631,"EPHEMERIS_TYPE":0,"NORAD_CAT_ID":63027,"ELEMENT_SET_NO":999,"REV_AT_EPOCH":7871,"BSTAR":0.00015148108,"MEAN_MOTION_DOT":0.00005447,"MEAN_MOTION_DDOT":0},{"OBJECT_NAME":"GLOBAL-32","OBJECT_ID":"2025-118B","EPOCH":"2026-07-15T20:16:34.411008","CLASSIFICATION_TYPE":"U","MEAN_MOTION":15.39298124,"ECCENTRICITY":0.00165677,"INCLINATION":58.9937,"RA_OF_ASC_NODE":16.5539,"ARG_OF_PERICENTER":61.5397,"MEAN_ANOMALY":298.7346,"EPHEMERIS_TYPE":0,"NORAD_CAT_ID":64231,"ELEMENT_SET_NO":999,"REV_AT_EPOCH":6265,"BSTAR":0.00020972953,"MEAN_MOTION_DOT":0.00007952,"MEAN_MOTION_DDOT":0},{"OBJECT_NAME":"GLOBAL-33","OBJECT_ID":"2025-267A","EPOCH":"2026-07-15T10:29:30.099552","CLASSIFICATION_TYPE":"U","MEAN_MOTION":15.37230447,"ECCENTRICITY":0.00079799,"INCLINATION":42.018,"RA_OF_ASC_NODE":251.8639,"ARG_OF_PERICENTER":95.0002,"MEAN_ANOMALY":265.1749,"EPHEMERIS_TYPE":0,"NORAD_CAT_ID":66554,"ELEMENT_SET_NO":999,"REV_AT_EPOCH":3639,"BSTAR":0.00017131951,"MEAN_MOTION_DOT":0.0000613,"MEAN_MOTION_DDOT":0},{"OBJECT_NAME":"GLOBAL-34","OBJECT_ID":"2026-043A","EPOCH":"2026-07-15T01:02:55.243680","CLASSIFICATION_TYPE":"U","MEAN_MOTION":15.33104306,"ECCENTRICITY":0.00017105,"INCLINATION":42.0216,"RA_OF_ASC_NODE":59.6488,"ARG_OF_PERICENTER":141.7716,"MEAN_ANOMALY":218.3243,"EPHEMERIS_TYPE":0,"NORAD_CAT_ID":68098,"ELEMENT_SET_NO":999,"REV_AT_EPOCH":2010,"BSTAR":0.00018566137,"MEAN_MOTION_DOT":0.00005816,"MEAN_MOTION_DDOT":0}]}
